{"type": "FeatureCollection", "features": [ {"type": "Feature", "properties": {"norad_id": 34529, "name": "IRIDIUM 33 DEB", "group": "iridium-33-debris", "lat": 42.63895937898264, "lon": 37.864036634502725, "alt_km": 755.1841579413722, "timestamp": "2025-12-14T20:40:32.157704+00:00", "meta": {"OBJECT_NAME": "IRIDIUM 33 DEB", "OBJECT_ID": "1997-051HW", "EPOCH": "2025-12-14T03:48:27.167328", "MEAN_MOTION": 14.40617171, "ECCENTRICITY": 0.00049833, "INCLINATION": 86.3641, "RA_OF_ASC_NODE": 34.807, "ARG_OF_PERICENTER": 172.3273, "MEAN_ANOMALY": 187.8004, "EPHEMERIS_TYPE": 0, "CLASSIFICATION_TYPE": "U", "NORAD_CAT_ID": 34529, "ELEMENT_SET_NO": 999, "REV_AT_EPOCH": 88162, "BSTAR": 0.00014944664, "MEAN_MOTION_DOT": 4.96e-06, "MEAN_MOTION_DDOT": 0}, "tle": {"line1": "1 34529U 97051HW  25348.15864777  .00000496  00000+0  14945-3 0  9996", "line2": "2 34529  86.3641  34.8070 0004983 172.3273 187.8004 14.40617171881629"}}, "geometry": {"type": "Point", "coordinates": [37.864036634502725, 42.63895937898264]}}, {"type": "Feature", "properties": {"norad_id": 34538, "name": "IRIDIUM 33 DEB", "group": "iridium-33-debris", "lat": -74.76274823228586, "lon": -161.54458935747206, "alt_km": 747.4601959818829, "timestamp": "2025-12-14T20:40:32.157715+00:00", "meta": {"OBJECT_NAME": "IRIDIUM 33 DEB", "OBJECT_ID": "1997-051JF", "EPOCH": "2025-12-14T06:47:29.485824", "MEAN_MOTION": 14.42660528, "ECCENTRICITY": 0.00326715, "INCLINATION": 86.2774, "RA_OF_ASC_NODE": 4.8803, "ARG_OF_PERICENTER": 322.7604, "MEAN_ANOMALY": 170.167, "EPHEMERIS_TYPE": 0, "CLASSIFICATION_TYPE": "U", "NORAD_CAT_ID": 34538, "ELEMENT_SET_NO": 999, "REV_AT_EPOCH": 87778, "BSTAR": 0.0010767413, "MEAN_MOTION_DOT": 3.621e-05, "MEAN_MOTION_DDOT": 0}, "tle": {"line1": "1 34538U 97051JF  25348.28298016  .00003621  00000+0  10767-2 0  9997", "line2": "2 34538  86.2774   4.8803 0032671 322.7604 170.1670 14.42660528877782"}}, "geometry": {"type": "Point", "coordinates": [-161.54458935747206, -74.76274823228586]}}, {"type": "Feature", "properties": {"norad_id": 34540, "name": "IRIDIUM 33 DEB", "group": "iridium-33-debris", "lat": -23.24388218254838, "lon": 128.2253128577254, "alt_km": 642.2152968832352, "timestamp": "2025-12-14T20:40:32.157725+00:00", "meta": {"OBJECT_NAME": "IRIDIUM 33 DEB", "OBJECT_ID": "1997-051JH", "EPOCH": "2025-12-13T21:13:41.307168", "MEAN_MOTION": 14.75357802, "ECCENTRICITY": 0.00166291, "INCLINATION": 86.3099, "RA_OF_ASC_NODE": 307.0836, "ARG_OF_PERICENTER": 155.1807, "MEAN_ANOMALY": 262.2011, "EPHEMERIS_TYPE": 0, "CLASSIFICATION_TYPE": "U", "NORAD_CAT_ID": 34540, "ELEMENT_SET_NO": 999, "REV_AT_EPOCH": 89038, "BSTAR": 0.0017757378, "MEAN_MOTION_DOT": 0.00012101, "MEAN_MOTION_DDOT": 0}, "tle": {"line1": "1 34540U 97051JH  25347.88450587  .00012101  00000+0  17757-2 0  9997", "line2": "2 34540  86.3099 307.0836 0016629 155.1807 262.2011 14.75357802890385"}}, "geometry": {"type": "Point", "coordinates": [128.2253128577254, -23.24388218254838]}}, {"type": "Feature", "properties": {"norad_id": 34648, "name": "IRIDIUM 33 DEB", "group": "iridium-33-debris", "lat": -41.16190982835908, "lon": 104.2539475438032, "alt_km": 815.6546595105665, "timestamp": "2025-12-14T20:40:32.157736+00:00", "meta": {"OBJECT_NAME": "IRIDIUM 33 DEB", "OBJECT_ID": "1997-051JZ", "EPOCH": "2025-12-13T19:47:40.836480", "MEAN_MOTION": 14.11548438, "ECCENTRICITY": 0.01824148, "INCLINATION": 86.3898, "RA_OF_ASC_NODE": 281.5085, "ARG_OF_PERICENTER": 295.4937, "MEAN_ANOMALY": 62.7476, "EPHEMERIS_TYPE": 0, "CLASSIFICATION_TYPE": "U", "NORAD_CAT_ID": 34648, "ELEMENT_SET_NO": 999, "REV_AT_EPOCH": 84976, "BSTAR": 0.007354752, "MEAN_MOTION_DOT": 0.00015643, "MEAN_MOTION_DDOT": 0}, "tle": {"line1": "1 34648U 97051JZ  25347.82477820  .00015643  00000+0  73548-2 0  9993", "line2": "2 34648  86.3898 281.5085 0182414 295.4937  62.7476 14.11548438849762"}}, "geometry": {"type": "Point", "coordinates": [104.2539475438032, -41.16190982835908]}}, {"type": "Feature", "properties": {"norad_id": 34651, "name": "IRIDIUM 33 DEB", "group": "iridium-33-debris", "lat": 29.36740681158957, "lon": 141.77138135471702, "alt_km": 903.9000202083153, "timestamp": "2025-12-14T20:40:32.157746+00:00", "meta": {"OBJECT_NAME": "IRIDIUM 33 DEB", "OBJECT_ID": "1997-051KC", "EPOCH": "2025-12-14T03:41:28.490208", "MEAN_MOTION": 14.25850075, "ECCENTRICITY": 0.0142124, "INCLINATION": 86.2826, "RA_OF_ASC_NODE": 139.9759, "ARG_OF_PERICENTER": 199.4492, "MEAN_ANOMALY": 160.1246, "EPHEMERIS_TYPE": 0, "CLASSIFICATION_TYPE": "U", "NORAD_CAT_ID": 34651, "ELEMENT_SET_NO": 999, "REV_AT_EPOCH": 85916, "BSTAR": 0.0035077046, "MEAN_MOTION_DOT": 9.301e-05, "MEAN_MOTION_DDOT": 0}, "tle": {"line1": "1 34651U 97051KC  25348.15380197  .00009301  00000+0  35077-2 0  9993", "line2": "2 34651  86.2826 139.9759 0142124 199.4492 160.1246 14.25850075859164"}}, "geometry": {"type": "Point", "coordinates": [141.77138135471702, 29.36740681158957]}}, {"type": "Feature", "properties": {"norad_id": 34652, "name": "IRIDIUM 33 DEB", "group": "iridium-33-debris", "lat": -2.5292650078644843, "lon": -21.105140426894955, "alt_km": 682.6704571847067, "timestamp": "2025-12-14T20:40:32.157756+00:00", "meta": {"OBJECT_NAME": "IRIDIUM 33 DEB", "OBJECT_ID": "1997-051KD", "EPOCH": "2025-12-14T05:57:05.027904", "MEAN_MOTION": 14.62079041, "ECCENTRICITY": 0.00257778, "INCLINATION": 86.3313, "RA_OF_ASC_NODE": 339.3303, "ARG_OF_PERICENTER": 292.7931, "MEAN_ANOMALY": 77.4151, "EPHEMERIS_TYPE": 0, "CLASSIFICATION_TYPE": "U", "NORAD_CAT_ID": 34652, "ELEMENT_SET_NO": 999, "REV_AT_EPOCH": 88506, "BSTAR": 0.0011175888, "MEAN_MOTION_DOT": 5.659e-05, "MEAN_MOTION_DDOT": 0}, "tle": {"line1": "1 34652U 97051KD  25348.24797486  .00005659  00000+0  11176-2 0  9993", "line2": "2 34652  86.3313 339.3303 0025777 292.7931  77.4151 14.62079041885067"}}, "geometry": {"type": "Point", "coordinates": [-21.105140426894955, -2.5292650078644843]}}, {"type": "Feature", "properties": {"norad_id": 34690, "name": "IRIDIUM 33 DEB", "group": "iridium-33-debris", "lat": 12.789950838951786, "lon": -144.7545286280966, "alt_km": 716.4372125025939, "timestamp": "2025-12-14T20:40:32.157766+00:00", "meta": {"OBJECT_NAME": "IRIDIUM 33 DEB", "OBJECT_ID": "1997-051KM", "EPOCH": "2025-12-14T03:39:14.126112", "MEAN_MOTION": 14.55103123, "ECCENTRICITY": 0.0010693, "INCLINATION": 86.3785, "RA_OF_ASC_NODE": 36.3774, "ARG_OF_PERICENTER": 25.2522, "MEAN_ANOMALY": 28.8902, "EPHEMERIS_TYPE": 0, "CLASSIFICATION_TYPE": "U", "NORAD_CAT_ID": 34690, "ELEMENT_SET_NO": 999, "REV_AT_EPOCH": 88115, "BSTAR": 0.00054232235, "MEAN_MOTION_DOT": 2.362e-05, "MEAN_MOTION_DDOT": 0}, "tle": {"line1": "1 34690U 97051KM  25348.15224683  .00002362  00000+0  54232-3 0  9998", "line2": "2 34690  86.3785  36.3774 0010693  25.2522  28.8902 14.55103123881155"}}, "geometry": {"type": "Point", "coordinates": [-144.7545286280966, 12.789950838951786]}}, {"type": "Feature", "properties": {"norad_id": 34693, "name": "IRIDIUM 33 DEB", "group": "iridium-33-debris", "lat": 52.921901016801186, "lon": -52.32228646650585, "alt_km": 466.15586415065627, "timestamp": "2025-12-14T20:40:32.157776+00:00", "meta": {"OBJECT_NAME": "IRIDIUM 33 DEB", "OBJECT_ID": "1997-051KQ", "EPOCH": "2025-12-14T08:32:13.204032", "MEAN_MOTION": 15.28431525, "ECCENTRICITY": 0.00132971, "INCLINATION": 86.3039, "RA_OF_ASC_NODE": 303.022, "ARG_OF_PERICENTER": 50.2441, "MEAN_ANOMALY": 101.7244, "EPHEMERIS_TYPE": 0, "CLASSIFICATION_TYPE": "U", "NORAD_CAT_ID": 34693, "ELEMENT_SET_NO": 999, "REV_AT_EPOCH": 88939, "BSTAR": 0.0050021575, "MEAN_MOTION_DOT": 0.00141107, "MEAN_MOTION_DDOT": 0}, "tle": {"line1": "1 34693U 97051KQ  25348.35570838  .00141107  00000+0  50022-2 0  9992", "line2": "2 34693  86.3039 303.0220 0013297  50.2441 101.7244 15.28431525889396"}}, "geometry": {"type": "Point", "coordinates": [-52.32228646650585, 52.921901016801186]}}, {"type": "Feature", "properties": {"norad_id": 34696, "name": "IRIDIUM 33 DEB", "group": "iridium-33-debris", "lat": 21.657109747755886, "lon": 28.053316332318477, "alt_km": 715.0764720730149, "timestamp": "2025-12-14T20:40:32.157787+00:00", "meta": {"OBJECT_NAME": "IRIDIUM 33 DEB", "OBJECT_ID": "1997-051KT", "EPOCH": "2025-12-14T02:47:44.257344", "MEAN_MOTION": 14.65206988, "ECCENTRICITY": 0.00741221, "INCLINATION": 86.1864, "RA_OF_ASC_NODE": 26.882, "ARG_OF_PERICENTER": 162.7009, "MEAN_ANOMALY": 252.4985, "EPHEMERIS_TYPE": 0, "CLASSIFICATION_TYPE": "U", "NORAD_CAT_ID": 34696, "ELEMENT_SET_NO": 999, "REV_AT_EPOCH": 86693, "BSTAR": 0.0047760209, "MEAN_MOTION_DOT": 0.00026862, "MEAN_MOTION_DDOT": 0}, "tle": {"line1": "1 34696U 97051KT  25348.11648446  .00026862  00000+0  47760-2 0  9995", "line2": "2 34696  86.1864  26.8820 0074122 162.7009 252.4985 14.65206988866936"}}, "geometry": {"type": "Point", "coordinates": [28.053316332318477, 21.657109747755886]}}, {"type": "Feature", "properties": {"norad_id": 34765, "name": "IRIDIUM 33 DEB", "group": "iridium-33-debris", "lat": 82.9283445253908, "lon": 62.91637174288857, "alt_km": 755.112384175909, "timestamp": "2025-12-14T20:40:32.157797+00:00", "meta": {"OBJECT_NAME": "IRIDIUM 33 DEB", "OBJECT_ID": "1997-051LJ", "EPOCH": "2025-12-14T03:54:12.794976", "MEAN_MOTION": 14.4047032, "ECCENTRICITY": 0.00155921, "INCLINATION": 86.3397, "RA_OF_ASC_NODE": 32.1513, "ARG_OF_PERICENTER": 206.4043, "MEAN_ANOMALY": 216.0627, "EPHEMERIS_TYPE": 0, "CLASSIFICATION_TYPE": "U", "NORAD_CAT_ID": 34765, "ELEMENT_SET_NO": 999, "REV_AT_EPOCH": 87634, "BSTAR": 0.00050106908, "MEAN_MOTION_DOT": 1.614e-05, "MEAN_MOTION_DDOT": 0}, "tle": {"line1": "1 34765U 97051LJ  25348.16264809  .00001614  00000+0  50107-3 0  9992", "line2": "2 34765  86.3397  32.1513 0015592 206.4043 216.0627 14.40470320876346"}}, "geometry": {"type": "Point", "coordinates": [62.91637174288857, 82.9283445253908]}}]}